IONOSFERA-M 2           
1 61736U 24199B   26159.22638490  .00000056  00000+0  44762-4 0  9992
2 61736  98.7183  32.4035 0001396  46.8833 313.2462 14.22755880129554
PRSC-EO1                
1 62725U 25012A   26159.29085797  .00006610  00000+0  33149-3 0  9997
2 62725  97.4223 231.9244 0004248 293.1129  66.9657 15.17655974 76845
BIOMASS                 
1 63772U 25090A   26159.10161279  .00000857  00000+0  15966-3 0  9990
2 63772  98.0744 346.5504 0001361  89.1797 270.9563 14.67535409 59356
GOSAT-GW (IBUKI GW)     
1 64694U 25141A   26159.32655700  .00001080  00000+0  19881-3 0  9991
2 64694  98.0573  96.7879 0001438  83.4912 276.6457 14.67550967 50543
IONOSFERA-M 3           
1 64876U 25155A   26159.23605723  .00000062  00000+0  47928-4 0  9991
2 64876  98.6027 121.3667 0000476 175.9404 184.1778 14.21484987 45135
IONOSFERA-M 4           
1 64877U 25155B   26159.27091295  .00000066  00000+0  49660-4 0  9998
2 64877  98.6019 121.3181 0000748 116.7513 243.3741 14.21487169 45137
MICROCARB               
1 64899U 25156A   26159.17890434  .00000534  00000+0  92305-4 0  9998
2 64899  97.9831 236.4769 0015169 303.6919  56.2841 14.72316558 46643
CO3D 3                  
1 64900U 25156B   26159.23573370  .00004739  00000+0  22184-3 0  9993
2 64900  97.4325 238.0577 0001108 137.5046 222.6275 15.20208885 48174
CO3D 4                  
1 64901U 25156C   26159.23588632  .00000337  00000+0  18678-4 0  9995
2 64901  97.4332 238.0574 0000755  27.9505 332.1770 15.20193080 48176
CO3D 2                  
1 64902U 25156D   26159.26836762  .00004136  00000+0  19408-3 0  9991
2 64902  97.4324 237.9886 0001393 115.1190 245.0190 15.20203839 48173
CO3D 1                  
1 64903U 25156E   26159.26851320  .00004188  00000+0  19639-3 0  9992
2 64903  97.4324 237.9891 0001170 118.8623 241.2729 15.20213224 48179
PRSC-S1                 
1 65055U 25164A   26159.18101025  .00005864  00000+0  40271-3 0  9999
2 65055  41.1316 338.5321 0007582 290.9194  69.0808 15.06376710 47075
SENTINEL-6B             
1 66514U 25264A   26159.18517513 -.00000031  00000+0  13179-3 0  9993
2 66514  66.0384 153.8757 0008031 269.2521  90.7574 12.80929779 26011
CAS500-3                
1 66655U 25274F   26158.80279979  .00001459  00000+0  16362-3 0  9990
2 66655  97.7446  87.0675 0006279 134.7191 225.4538 14.88299583 28758
CSG-3                   
1 67304U 26001A   26159.01758032  .00000392  00000+0  55773-4 0  9992
2 67304  97.8882 342.7526 0001260  87.5567 272.5791 14.82148132 23103
PRSC-E03                
1 68835U 26092A   26159.24092275  .00002598  00000+0  17912-3 0  9999
2 68835  37.9996 142.4334 0005095 302.4855  57.5414 15.06626446  6600
CAS500-2                
1 69013U 26100AK  26159.20227184  .00006100  00000+0  28194-3 0  9990
2 69013  97.4082  57.2123 0011346  62.4273 297.8114 15.20482477  5445
