OBJECT_NAME,OBJECT_ID,EPOCH,MEAN_MOTION,ECCENTRICITY,INCLINATION,RA_OF_ASC_NODE,ARG_OF_PERICENTER,MEAN_ANOMALY,EPHEMERIS_TYPE,CLASSIFICATION_TYPE,NORAD_CAT_ID,ELEMENT_SET_NO,REV_AT_EPOCH,BSTAR,MEAN_MOTION_DOT,MEAN_MOTION_DDOT
IONOSFERA-M 2,2024-199B,2026-06-08T05:25:59.655360,14.22755880,.00013969,98.7183,32.4035,46.8833,313.2462,0,U,61736,999,12955,.44761755E-4,.56E-6,0
PRSC-EO1,2025-012A,2026-06-08T06:58:50.128608,15.17655974,.00042485,97.4223,231.9244,293.1129,66.9657,0,U,62725,999,7684,.3314933E-3,.661E-4,0
BIOMASS,2025-090A,2026-06-08T02:26:19.345056,14.67535409,.00013614,98.0744,346.5504,89.1797,270.9563,0,U,63772,999,5935,.15965563E-3,.857E-5,0
GOSAT-GW (IBUKI GW),2025-141A,2026-06-08T07:50:14.524800,14.67550967,.00014385,98.0573,96.7879,83.4912,276.6457,0,U,64694,999,5054,.1988067E-3,.108E-4,0
IONOSFERA-M 3,2025-155A,2026-06-08T05:39:55.344672,14.21484987,.0000476,98.6027,121.3667,175.9404,184.1778,0,U,64876,999,4513,.47927891E-4,.62E-6,0
IONOSFERA-M 4,2025-155B,2026-06-08T06:30:06.878880,14.21487169,.00007487,98.6019,121.3181,116.7513,243.3741,0,U,64877,999,4513,.49659754E-4,.66E-6,0
MICROCARB,2025-156A,2026-06-08T04:17:37.334976,14.72316558,.00151698,97.9831,236.4769,303.6919,56.2841,0,U,64899,999,4664,.92304963E-4,.534E-5,0
CO3D 3,2025-156B,2026-06-08T05:39:27.391680,15.20208885,.00011081,97.4325,238.0577,137.5046,222.6275,0,U,64900,999,4817,.2218432E-3,.4739E-4,0
CO3D 4,2025-156C,2026-06-08T05:39:40.578048,15.20193080,.00007553,97.4332,238.0574,27.9505,332.1770,0,U,64901,999,4817,.18678215E-4,.337E-5,0
CO3D 2,2025-156D,2026-06-08T06:26:26.962368,15.20203839,.00013935,97.4324,237.9886,115.1190,245.0190,0,U,64902,999,4817,.19408449E-3,.4136E-4,0
CO3D 1,2025-156E,2026-06-08T06:26:39.540480,15.20213224,.00011706,97.4324,237.9891,118.8623,241.2729,0,U,64903,999,4817,.1963941E-3,.4188E-4,0
PRSC-S1,2025-164A,2026-06-08T04:20:39.285600,15.06376710,.00075829,41.1316,338.5321,290.9194,69.0808,0,U,65055,999,4707,.40270738E-3,.5864E-4,0
SENTINEL-6B,2025-264A,2026-06-08T04:26:39.131232,12.80929779,.00080313,66.0384,153.8757,269.2521,90.7574,0,U,66514,999,2601,.1317894E-3,-.31E-6,0
CAS500-3,2025-274F,2026-06-07T19:16:01.901856,14.88299583,.00062796,97.7446,87.0675,134.7191,225.4538,0,U,66655,999,2875,.16362123E-3,.1459E-4,0
CSG-3,2026-001A,2026-06-08T00:25:18.939648,14.82148132,.00012606,97.8882,342.7526,87.5567,272.5791,0,U,67304,999,2310,.55772987E-4,.392E-5,0
PRSC-E03,2026-092A,2026-06-08T05:46:55.725600,15.06626446,.00050953,37.9996,142.4334,302.4855,57.5414,0,U,68835,999,660,.17911819E-3,.2598E-4,0
CAS500-2,2026-100AK,2026-06-08T04:51:16.286976,15.20482477,.00113469,97.4082,57.2123,62.4273,297.8114,0,U,69013,999,544,.28193965E-3,.61E-4,0
